[{"OBJECT_NAME":"ONEWEB-0634","OBJECT_ID":"2023-043AF","EPOCH":"2026-05-13T02:04:30.772128","MEAN_MOTION":13.15549524,"ECCENTRICITY":0.0001742,"INCLINATION":87.8975,"RA_OF_ASC_NODE":266.2259,"ARG_OF_PERICENTER":109.3236,"MEAN_ANOMALY":250.8083,"EPHEMERIS_TYPE":0,"CLASSIFICATION_TYPE":"U","NORAD_CAT_ID":56075,"ELEMENT_SET_NO":999,"REV_AT_EPOCH":15178,"BSTAR":-0.00047765000000000004,"MEAN_MOTION_DOT":-1.67e-06,"MEAN_MOTION_DDOT":0.0},{"OBJECT_NAME":"ONEWEB-0635","OBJECT_ID":"2023-043AG","EPOCH":"2026-05-13T01:57:41.236128","MEAN_MOTION":13.15548645,"ECCENTRICITY":0.0002166,"INCLINATION":87.8983,"RA_OF_ASC_NODE":266.1865,"ARG_OF_PERICENTER":98.1939,"MEAN_ANOMALY":261.9437,"EPHEMERIS_TYPE":0,"CLASSIFICATION_TYPE":"U","NORAD_CAT_ID":56076,"ELEMENT_SET_NO":999,"REV_AT_EPOCH":15181,"BSTAR":-0.00042469000000000003,"MEAN_MOTION_DOT":-1.47e-06,"MEAN_MOTION_DDOT":0.0},{"OBJECT_NAME":"ONEWEB-0636","OBJECT_ID":"2023-043AH","EPOCH":"2026-05-12T22:07:13.552032","MEAN_MOTION":13.15548982,"ECCENTRICITY":0.0002087,"INCLINATION":87.8974,"RA_OF_ASC_NODE":266.2271,"ARG_OF_PERICENTER":99.1848,"MEAN_ANOMALY":260.9519,"EPHEMERIS_TYPE":0,"CLASSIFICATION_TYPE":"U","NORAD_CAT_ID":56077,"ELEMENT_SET_NO":999,"REV_AT_EPOCH":15177,"BSTAR":-0.00023066999999999999,"MEAN_MOTION_DOT":-7.4e-07,"MEAN_MOTION_DDOT":0.0},{"OBJECT_NAME":"ONEWEB-0637","OBJECT_ID":"2023-043AJ","EPOCH":"2026-05-13T01:37:08.474016","MEAN_MOTION":13.15549458,"ECCENTRICITY":0.0002078,"INCLINATION":87.8975,"RA_OF_ASC_NODE":266.2154,"ARG_OF_PERICENTER":107.12,"MEAN_ANOMALY":253.0158,"EPHEMERIS_TYPE":0,"CLASSIFICATION_TYPE":"U","NORAD_CAT_ID":56078,"ELEMENT_SET_NO":999,"REV_AT_EPOCH":15181,"BSTAR":1.797e-05,"MEAN_MOTION_DOT":2e-07,"MEAN_MOTION_DDOT":0.0},{"OBJECT_NAME":"ONEWEB-0647","OBJECT_ID":"2023-043AK","EPOCH":"2026-05-12T21:51:13.743936","MEAN_MOTION":13.15546529,"ECCENTRICITY":0.0001969,"INCLINATION":87.8977,"RA_OF_ASC_NODE":266.2591,"ARG_OF_PERICENTER":95.2683,"MEAN_ANOMALY":264.8672,"EPHEMERIS_TYPE":0,"CLASSIFICATION_TYPE":"U","NORAD_CAT_ID":56079,"ELEMENT_SET_NO":999,"REV_AT_EPOCH":15178,"BSTAR":9.6781e-05,"MEAN_MOTION_DOT":4.9e-07,"MEAN_MOTION_DDOT":0.0},{"OBJECT_NAME":"ONEWEB-0651","OBJECT_ID":"2023-043AL","EPOCH":"2026-05-13T05:02:29.813856","MEAN_MOTION":13.15549508,"ECCENTRICITY":0.0002107,"INCLINATION":87.8973,"RA_OF_ASC_NODE":266.1934,"ARG_OF_PERICENTER":102.4781,"MEAN_ANOMALY":257.6585,"EPHEMERIS_TYPE":0,"CLASSIFICATION_TYPE":"U","NORAD_CAT_ID":56080,"ELEMENT_SET_NO":999,"REV_AT_EPOCH":15302,"BSTAR":0.00058382,"MEAN_MOTION_DOT":2.33e-06,"MEAN_MOTION_DDOT":0.0},{"OBJECT_NAME":"ONEWEB-0718","OBJECT_ID":"2023-043AM","EPOCH":"2026-05-13T03:06:08.757792","MEAN_MOTION":13.15549237,"ECCENTRICITY":0.0001535,"INCLINATION":87.8972,"RA_OF_ASC_NODE":266.1901,"ARG_OF_PERICENTER":112.7524,"MEAN_ANOMALY":247.3769,"EPHEMERIS_TYPE":0,"CLASSIFICATION_TYPE":"U","NORAD_CAT_ID":56081,"ELEMENT_SET_NO":999,"REV_AT_EPOCH":15182,"BSTAR":0.00028562,"MEAN_MOTION_DOT":1.2e-06,"MEAN_MOTION_DDOT":0.0},{"OBJECT_NAME":"ONEWEB-0561","OBJECT_ID":"2023-068A","EPOCH":"2026-05-13T02:56:07.552896","MEAN_MOTION":13.20784194,"ECCENTRICITY":0.0002222,"INCLINATION":87.9159,"RA_OF_ASC_NODE":281.4371,"ARG_OF_PERICENTER":91.7215,"MEAN_ANOMALY":268.4173,"EPHEMERIS_TYPE":0,"CLASSIFICATION_TYPE":"U","NORAD_CAT_ID":56710,"ELEMENT_SET_NO":999,"REV_AT_EPOCH":14487,"BSTAR":0.0001342,"MEAN_MOTION_DOT":6.8e-07,"MEAN_MOTION_DDOT":0.0},{"OBJECT_NAME":"ONEWEB-0668","OBJECT_ID":"2023-068B","EPOCH":"2026-05-13T05:48:56.262240","MEAN_MOTION":13.16595908,"ECCENTRICITY":0.0001963,"INCLINATION":87.9106,"RA_OF_ASC_NODE":235.7092,"ARG_OF_PERICENTER":117.1172,"MEAN_ANOMALY":243.016,"EPHEMERIS_TYPE":0,"CLASSIFICATION_TYPE":"U","NORAD_CAT_ID":56711,"ELEMENT_SET_NO":999,"REV_AT_EPOCH":14718,"BSTAR":3.8538e-06,"MEAN_MOTION_DOT":1.4e-07,"MEAN_MOTION_DDOT":0.0},{"OBJECT_NAME":"ONEWEB-0676","OBJECT_ID":"2023-068C","EPOCH":"2026-05-13T06:00:21.556800","MEAN_MOTION":13.1659479,"ECCENTRICITY":0.0002338,"INCLINATION":87.9101,"RA_OF_ASC_NODE":235.7145,"ARG_OF_PERICENTER":100.5772,"MEAN_ANOMALY":259.5622,"EPHEMERIS_TYPE":0,"CLASSIFICATION_TYPE":"U","NORAD_CAT_ID":56712,"ELEMENT_SET_NO":999,"REV_AT_EPOCH":14710,"BSTAR":2.4459e-05,"MEAN_MOTION_DOT":2.2e-07,"MEAN_MOTION_DDOT":0.0},{"OBJECT_NAME":"ONEWEB-0677","OBJECT_ID":"2023-068D","EPOCH":"2026-05-12T23:01:23.055168","MEAN_MOTION":13.20882426,"ECCENTRICITY":0.000219,"INCLINATION":87.9158,"RA_OF_ASC_NODE":281.4614,"ARG_OF_PERICENTER":106.0425,"MEAN_ANOMALY":254.095,"EPHEMERIS_TYPE":0,"CLASSIFICATION_TYPE":"U","NORAD_CAT_ID":56713,"ELEMENT_SET_NO":999,"REV_AT_EPOCH":14515,"BSTAR":4.951900000000001e-06,"MEAN_MOTION_DOT":1.5e-07,"MEAN_MOTION_DDOT":0.0},{"OBJECT_NAME":"ONEWEB-0678","OBJECT_ID":"2023-068E","EPOCH":"2026-05-13T02:20:28.820256","MEAN_MOTION":13.15549528,"ECCENTRICITY":0.0001883,"INCLINATION":87.898,"RA_OF_ASC_NODE":266.1849,"ARG_OF_PERICENTER":90.6727,"MEAN_ANOMALY":269.4619,"EPHEMERIS_TYPE":0,"CLASSIFICATION_TYPE":"U","NORAD_CAT_ID":56714,"ELEMENT_SET_NO":999,"REV_AT_EPOCH":14467,"BSTAR":-0.00031305,"MEAN_MOTION_DOT":-1.05e-06,"MEAN_MOTION_DDOT":0.0},{"OBJECT_NAME":"ONEWEB-0679","OBJECT_ID":"2023-068F","EPOCH":"2026-05-13T05:01:04.177632","MEAN_MOTION":13.1659591,"ECCENTRICITY":0.0002372,"INCLINATION":87.9107,"RA_OF_ASC_NODE":235.7137,"ARG_OF_PERICENTER":113.2753,"MEAN_ANOMALY":246.8628,"EPHEMERIS_TYPE":0,"CLASSIFICATION_TYPE":"U","NORAD_CAT_ID":56715,"ELEMENT_SET_NO":999,"REV_AT_EPOCH":14712,"BSTAR":0.00016406000000000003,"MEAN_MOTION_DOT":7.6e-07,"MEAN_MOTION_DDOT":0.0},{"OBJECT_NAME":"ONEWEB-0680","OBJECT_ID":"2023-068G","EPOCH":"2026-05-12T19:42:44.834400","MEAN_MOTION":13.21823569,"ECCENTRICITY":0.0002074,"INCLINATION":87.925,"RA_OF_ASC_NODE":251.0063,"ARG_OF_PERICENTER":117.284,"MEAN_ANOMALY":242.8505,"EPHEMERIS_TYPE":0,"CLASSIFICATION_TYPE":"U","NORAD_CAT_ID":56716,"ELEMENT_SET_NO":999,"REV_AT_EPOCH":14642,"BSTAR":5.9223000000000005e-05,"MEAN_MOTION_DOT":3.7e-07,"MEAN_MOTION_DDOT":0.0},{"OBJECT_NAME":"ONEWEB-0681","OBJECT_ID":"2023-068H","EPOCH":"2026-05-13T00:41:54.313440","MEAN_MOTION":13.21824779,"ECCENTRICITY":0.0002893,"INCLINATION":87.9247,"RA_OF_ASC_NODE":250.9682,"ARG_OF_PERICENTER":96.3183,"MEAN_ANOMALY":263.8281,"EPHEMERIS_TYPE":0,"CLASSIFICATION_TYPE":"U","NORAD_CAT_ID":56717,"ELEMENT_SET_NO":999,"REV_AT_EPOCH":14644,"BSTAR":6.417800000000001e-05,"MEAN_MOTION_DOT":4e-07,"MEAN_MOTION_DDOT":0.0},{"OBJECT_NAME":"ONEWEB-0682","OBJECT_ID":"2023-068J","EPOCH":"2026-05-13T02:54:41.653152","MEAN_MOTION":13.15546503,"ECCENTRICITY":0.000198,"INCLINATION":87.8982,"RA_OF_ASC_NODE":266.1817,"ARG_OF_PERICENTER":115.7029,"MEAN_ANOMALY":244.4306,"EPHEMERIS_TYPE":0,"CLASSIFICATION_TYPE":"U","NORAD_CAT_ID":56718,"ELEMENT_SET_NO":999,"REV_AT_EPOCH":14484,"BSTAR":0.00034094999999999997,"MEAN_MOTION_DOT":1.41e-06,"MEAN_MOTION_DDOT":0.0}]