ONEWEB-0634             
1 56075U 23043AF  26133.08646727 -.00000167  00000+0 -47765-3 0  9997
2 56075  87.8975 266.2259 0001742 109.3236 250.8083 13.15549524151786
ONEWEB-0635             
1 56076U 23043AG  26133.08172727 -.00000147  00000+0 -42469-3 0  9996
2 56076  87.8983 266.1865 0002166  98.1939 261.9437 13.15548645151817
ONEWEB-0636             
1 56077U 23043AH  26132.92168463 -.00000074  00000+0 -23067-3 0  9993
2 56077  87.8974 266.2271 0002087  99.1848 260.9519 13.15548982151771
ONEWEB-0637             
1 56078U 23043AJ  26133.06745919  .00000020  00000+0  17970-4 0  9993
2 56078  87.8975 266.2154 0002078 107.1200 253.0158 13.15549458151811
ONEWEB-0647             
1 56079U 23043AK  26132.91057574  .00000049  00000+0  96781-4 0  9998
2 56079  87.8977 266.2591 0001969  95.2683 264.8672 13.15546529151782
ONEWEB-0651             
1 56080U 23043AL  26133.21006729  .00000233  00000+0  58382-3 0  9999
2 56080  87.8973 266.1934 0002107 102.4781 257.6585 13.15549508153027
ONEWEB-0718             
1 56081U 23043AM  26133.12926803  .00000120  00000+0  28562-3 0  9996
2 56081  87.8972 266.1901 0001535 112.7524 247.3769 13.15549237151829
ONEWEB-0561             
1 56710U 23068A   26133.12230964  .00000068  00000+0  13420-3 0  9996
2 56710  87.9159 281.4371 0002222  91.7215 268.4173 13.20784194144873
ONEWEB-0668             
1 56711U 23068B   26133.24231785  .00000014  00000+0  38538-5 0  9992
2 56711  87.9106 235.7092 0001963 117.1172 243.0160 13.16595908147184
ONEWEB-0676             
1 56712U 23068C   26133.25024950  .00000022  00000+0  24459-4 0  9993
2 56712  87.9101 235.7145 0002338 100.5772 259.5622 13.16594790147103
ONEWEB-0677             
1 56713U 23068D   26132.95929462  .00000015  00000+0  49519-5 0  9999
2 56713  87.9158 281.4614 0002190 106.0425 254.0950 13.20882426145155
ONEWEB-0678             
1 56714U 23068E   26133.09755579 -.00000105  00000+0 -31305-3 0  9996
2 56714  87.8980 266.1849 0001883  90.6727 269.4619 13.15549528144674
ONEWEB-0679             
1 56715U 23068F   26133.20907613  .00000076  00000+0  16406-3 0  9998
2 56715  87.9107 235.7137 0002372 113.2753 246.8628 13.16595910147123
ONEWEB-0680             
1 56716U 23068G   26132.82135225  .00000037  00000+0  59223-4 0  9990
2 56716  87.9250 251.0063 0002074 117.2840 242.8505 13.21823569146424
ONEWEB-0681             
1 56717U 23068H   26133.02910085  .00000040  00000+0  64178-4 0  9998
2 56717  87.9247 250.9682 0002893  96.3183 263.8281 13.21824779146442
ONEWEB-0682             
1 56718U 23068J   26133.12131543  .00000141  00000+0  34095-3 0  9990
2 56718  87.8982 266.1817 0001980 115.7029 244.4306 13.15546503144842
